[{"OBJECT_NAME":"STARLINK-2211","OBJECT_ID":"2021-017BJ","EPOCH":"2026-03-10T00:00:02.999808","MEAN_MOTION":15.35206358,"ECCENTRICITY":7.671e-5,"INCLINATION":53.1607,"RA_OF_ASC_NODE":202.9804,"ARG_OF_PERICENTER":76.2168,"MEAN_ANOMALY":185.1613,"EPHEMERIS_TYPE":0,"CLASSIFICATION_TYPE":"U","NORAD_CAT_ID":47778,"ELEMENT_SET_NO":999,"REV_AT_EPOCH":586,"BSTAR":0.01989969,"MEAN_MOTION_DOT":0.00740655,"MEAN_MOTION_DDOT":0},{"OBJECT_NAME":"SITRO-AIS 10 (BURDAEV)","OBJECT_ID":"2023-091AK","EPOCH":"2026-03-09T22:45:30.960864","MEAN_MOTION":15.34764555,"ECCENTRICITY":0.00081281,"INCLINATION":97.5182,"RA_OF_ASC_NODE":137.3607,"ARG_OF_PERICENTER":74.3981,"MEAN_ANOMALY":285.8158,"EPHEMERIS_TYPE":0,"CLASSIFICATION_TYPE":"U","NORAD_CAT_ID":57199,"ELEMENT_SET_NO":999,"REV_AT_EPOCH":14952,"BSTAR":0.00077206799,"MEAN_MOTION_DOT":0.00026021,"MEAN_MOTION_DDOT":0}]
